[{"OBJECT_NAME":"SL-8 R/B","OBJECT_ID":"1979-089B","EPOCH":"2026-03-08T03:36:20.778336","MEAN_MOTION":14.4234985,"ECCENTRICITY":0.0017161,"INCLINATION":74.0669,"RA_OF_ASC_NODE":93.8939,"ARG_OF_PERICENTER":266.7429,"MEAN_ANOMALY":93.1764,"EPHEMERIS_TYPE":0,"CLASSIFICATION_TYPE":"U","NORAD_CAT_ID":11574,"ELEMENT_SET_NO":999,"REV_AT_EPOCH":43588,"BSTAR":0.0001288,"MEAN_MOTION_DOT":4.0e-6,"MEAN_MOTION_DDOT":0},{"OBJECT_NAME":"SL-14 R/B","OBJECT_ID":"1980-005B","EPOCH":"2026-03-08T02:48:22.558464","MEAN_MOTION":14.90928613,"ECCENTRICITY":0.0016052,"INCLINATION":82.5147,"RA_OF_ASC_NODE":308.7282,"ARG_OF_PERICENTER":163.3381,"MEAN_ANOMALY":196.8369,"EPHEMERIS_TYPE":0,"CLASSIFICATION_TYPE":"U","NORAD_CAT_ID":11672,"ELEMENT_SET_NO":999,"REV_AT_EPOCH":47625,"BSTAR":7.9075e-5,"MEAN_MOTION_DOT":8.07e-6,"MEAN_MOTION_DDOT":0},{"OBJECT_NAME":"SL-8 R/B","OBJECT_ID":"1981-003B","EPOCH":"2026-03-08T01:55:23.580192","MEAN_MOTION":15.10898292,"ECCENTRICITY":0.0262326,"INCLINATION":82.9386,"RA_OF_ASC_NODE":291.5121,"ARG_OF_PERICENTER":184.2241,"MEAN_ANOMALY":175.6783,"EPHEMERIS_TYPE":0,"CLASSIFICATION_TYPE":"U","NORAD_CAT_ID":12139,"ELEMENT_SET_NO":999,"REV_AT_EPOCH":31443,"BSTAR":0.00069782,"MEAN_MOTION_DOT":0.00027158,"MEAN_MOTION_DDOT":0},{"OBJECT_NAME":"SL-3 R/B","OBJECT_ID":"1981-046B","EPOCH":"2026-03-08T02:20:03.202656","MEAN_MOTION":15.41946157,"ECCENTRICITY":0.0019663,"INCLINATION":81.2296,"RA_OF_ASC_NODE":291.6568,"ARG_OF_PERICENTER":27.8344,"MEAN_ANOMALY":332.3946,"EPHEMERIS_TYPE":0,"CLASSIFICATION_TYPE":"U","NORAD_CAT_ID":12465,"ELEMENT_SET_NO":999,"REV_AT_EPOCH":43818,"BSTAR":0.00042056,"MEAN_MOTION_DOT":0.00018063,"MEAN_MOTION_DDOT":0},{"OBJECT_NAME":"SL-3 R/B","OBJECT_ID":"1981-103B","EPOCH":"2026-03-08T03:04:21.316800","MEAN_MOTION":15.21355733,"ECCENTRICITY":0.0012532,"INCLINATION":81.1589,"RA_OF_ASC_NODE":215.2636,"ARG_OF_PERICENTER":292.4071,"MEAN_ANOMALY":67.5832,"EPHEMERIS_TYPE":0,"CLASSIFICATION_TYPE":"U","NORAD_CAT_ID":12904,"ELEMENT_SET_NO":999,"REV_AT_EPOCH":97299,"BSTAR":0.00037104,"MEAN_MOTION_DOT":8.355e-5,"MEAN_MOTION_DDOT":0},{"OBJECT_NAME":"SL-3 R/B","OBJECT_ID":"1982-013B","EPOCH":"2026-03-08T03:16:55.141248","MEAN_MOTION":15.21999398,"ECCENTRICITY":0.002258,"INCLINATION":81.1763,"RA_OF_ASC_NODE":162.5903,"ARG_OF_PERICENTER":182.5394,"MEAN_ANOMALY":177.5727,"EPHEMERIS_TYPE":0,"CLASSIFICATION_TYPE":"U","NORAD_CAT_ID":13068,"ELEMENT_SET_NO":999,"REV_AT_EPOCH":40411,"BSTAR":0.00033436,"MEAN_MOTION_DOT":7.712e-5,"MEAN_MOTION_DDOT":0},{"OBJECT_NAME":"SL-3 R/B","OBJECT_ID":"1982-039B","EPOCH":"2026-03-08T03:11:12.916896","MEAN_MOTION":15.10071218,"ECCENTRICITY":0.0029783,"INCLINATION":81.1585,"RA_OF_ASC_NODE":217.7566,"ARG_OF_PERICENTER":329.5832,"MEAN_ANOMALY":30.3664,"EPHEMERIS_TYPE":0,"CLASSIFICATION_TYPE":"U","NORAD_CAT_ID":13154,"ELEMENT_SET_NO":999,"REV_AT_EPOCH":38140,"BSTAR":0.00025276,"MEAN_MOTION_DOT":4.179e-5,"MEAN_MOTION_DDOT":0},{"OBJECT_NAME":"SL-3 R/B","OBJECT_ID":"1982-079B","EPOCH":"2026-03-08T02:12:21.864672","MEAN_MOTION":15.2477207,"ECCENTRICITY":0.0025026,"INCLINATION":81.1482,"RA_OF_ASC_NODE":194.9632,"ARG_OF_PERICENTER":170.0559,"MEAN_ANOMALY":190.1175,"EPHEMERIS_TYPE":0,"CLASSIFICATION_TYPE":"U","NORAD_CAT_ID":13403,"ELEMENT_SET_NO":999,"REV_AT_EPOCH":37745,"BSTAR":0.0004304,"MEAN_MOTION_DOT":0.00010791,"MEAN_MOTION_DDOT":0},{"OBJECT_NAME":"SL-14 R/B","OBJECT_ID":"1982-092B","EPOCH":"2026-03-08T03:44:45.890016","MEAN_MOTION":14.86664954,"ECCENTRICITY":0.001907,"INCLINATION":82.5697,"RA_OF_ASC_NODE":142.8339,"ARG_OF_PERICENTER":309.0117,"MEAN_ANOMALY":76.236,"EPHEMERIS_TYPE":0,"CLASSIFICATION_TYPE":"U","NORAD_CAT_ID":13553,"ELEMENT_SET_NO":999,"REV_AT_EPOCH":32870,"BSTAR":7.3071e-5,"MEAN_MOTION_DOT":6.75e-6,"MEAN_MOTION_DDOT":0},{"OBJECT_NAME":"SL-3 R/B","OBJECT_ID":"1983-010B","EPOCH":"2026-03-08T01:53:04.543584","MEAN_MOTION":15.46287134,"ECCENTRICITY":0.0018125,"INCLINATION":81.1066,"RA_OF_ASC_NODE":4.2221,"ARG_OF_PERICENTER":56.3076,"MEAN_ANOMALY":303.9894,"EPHEMERIS_TYPE":0,"CLASSIFICATION_TYPE":"U","NORAD_CAT_ID":13819,"ELEMENT_SET_NO":999,"REV_AT_EPOCH":35769,"BSTAR":0.00050198,"MEAN_MOTION_DOT":0.00024953,"MEAN_MOTION_DDOT":0},{"OBJECT_NAME":"SL-3 R/B","OBJECT_ID":"1983-075B","EPOCH":"2026-03-08T03:01:28.660224","MEAN_MOTION":15.38372689,"ECCENTRICITY":0.0019994,"INCLINATION":97.6144,"RA_OF_ASC_NODE":71.6438,"ARG_OF_PERICENTER":231.8866,"MEAN_ANOMALY":128.0576,"EPHEMERIS_TYPE":0,"CLASSIFICATION_TYPE":"U","NORAD_CAT_ID":14208,"ELEMENT_SET_NO":999,"REV_AT_EPOCH":32991,"BSTAR":0.00042407,"MEAN_MOTION_DOT":0.00016079,"MEAN_MOTION_DDOT":0},{"OBJECT_NAME":"COSMOS 1536","OBJECT_ID":"1984-013A","EPOCH":"2026-03-08T03:27:14.276736","MEAN_MOTION":15.23801642,"ECCENTRICITY":0.0012566,"INCLINATION":82.5424,"RA_OF_ASC_NODE":109.3869,"ARG_OF_PERICENTER":289.7296,"MEAN_ANOMALY":70.2585,"EPHEMERIS_TYPE":0,"CLASSIFICATION_TYPE":"U","NORAD_CAT_ID":14699,"ELEMENT_SET_NO":999,"REV_AT_EPOCH":27238,"BSTAR":0.00036657,"MEAN_MOTION_DOT":8.876e-5,"MEAN_MOTION_DDOT":0},{"OBJECT_NAME":"SL-14 R/B","OBJECT_ID":"1984-027B","EPOCH":"2026-03-08T00:13:58.969920","MEAN_MOTION":14.85974714,"ECCENTRICITY":0.0017491,"INCLINATION":82.5385,"RA_OF_ASC_NODE":246.5887,"ARG_OF_PERICENTER":343.6045,"MEAN_ANOMALY":16.4603,"EPHEMERIS_TYPE":0,"CLASSIFICATION_TYPE":"U","NORAD_CAT_ID":14820,"ELEMENT_SET_NO":999,"REV_AT_EPOCH":24738,"BSTAR":7.8491e-5,"MEAN_MOTION_DOT":7.11e-6,"MEAN_MOTION_DDOT":0},{"OBJECT_NAME":"SL-8 R/B","OBJECT_ID":"1985-006B","EPOCH":"2026-03-08T00:08:22.250976","MEAN_MOTION":14.37781127,"ECCENTRICITY":0.001851,"INCLINATION":74.0432,"RA_OF_ASC_NODE":264.2473,"ARG_OF_PERICENTER":182.4592,"MEAN_ANOMALY":330.5275,"EPHEMERIS_TYPE":0,"CLASSIFICATION_TYPE":"U","NORAD_CAT_ID":15483,"ELEMENT_SET_NO":999,"REV_AT_EPOCH":15378,"BSTAR":0.00010516,"MEAN_MOTION_DOT":2.91e-6,"MEAN_MOTION_DDOT":0},{"OBJECT_NAME":"SL-12 R/B(2)","OBJECT_ID":"1985-042D","EPOCH":"2026-03-08T03:30:06.281856","MEAN_MOTION":14.2198203,"ECCENTRICITY":0.0033327,"INCLINATION":71.1062,"RA_OF_ASC_NODE":90.9907,"ARG_OF_PERICENTER":130.6977,"MEAN_ANOMALY":287.0285,"EPHEMERIS_TYPE":0,"CLASSIFICATION_TYPE":"U","NORAD_CAT_ID":15772,"ELEMENT_SET_NO":999,"REV_AT_EPOCH":11417,"BSTAR":3.7445e-5,"MEAN_MOTION_DOT":3.6e-7,"MEAN_MOTION_DDOT":0},{"OBJECT_NAME":"SL-14 R/B","OBJECT_ID":"1985-069B","EPOCH":"2026-03-08T03:06:40.659264","MEAN_MOTION":14.86431255,"ECCENTRICITY":0.0018327,"INCLINATION":82.5284,"RA_OF_ASC_NODE":26.3996,"ARG_OF_PERICENTER":192.9424,"MEAN_ANOMALY":167.1325,"EPHEMERIS_TYPE":0,"CLASSIFICATION_TYPE":"U","NORAD_CAT_ID":15945,"ELEMENT_SET_NO":999,"REV_AT_EPOCH":17260,"BSTAR":8.6367e-5,"MEAN_MOTION_DOT":7.89e-6,"MEAN_MOTION_DDOT":0},{"OBJECT_NAME":"SL-16 R/B","OBJECT_ID":"1985-097B","EPOCH":"2026-03-08T03:24:58.956192","MEAN_MOTION":14.16599243,"ECCENTRICITY":0.0009939,"INCLINATION":71.0031,"RA_OF_ASC_NODE":143.812,"ARG_OF_PERICENTER":261.6181,"MEAN_ANOMALY":117.0443,"EPHEMERIS_TYPE":0,"CLASSIFICATION_TYPE":"U","NORAD_CAT_ID":16182,"ELEMENT_SET_NO":999,"REV_AT_EPOCH":8701,"BSTAR":-6.2608e-5,"MEAN_MOTION_DOT":-1.73e-6,"MEAN_MOTION_DDOT":0}]
